NORAD_CAT_ID,OBJECT_NAME,OBJECT_TYPE,EPOCH,MEAN_MOTION,ECCENTRICITY,INCLINATION,RA_OF_ASC_NODE,ARG_OF_PERICENTER,MEAN_ANOMALY,BSTAR,MEAN_MOTION_DOT,MEAN_MOTION_DDOT,TLE_LINE0,TLE_LINE1,TLE_LINE2,SEMIMAJOR_AXIS,PERIOD,APOGEE,PERIGEE,DECAYED
53857.0,STARLINK-4809,PAYLOAD,2024-02-08 13:24:35,15.08852345,0.0001287,53.2168,106.0593,104.7851,255.3284,-3.0905e-05,-7.8e-06,0.0,0 STARLINK-4809,1 53857U 22114AR  24039.55874818 -.00000780  00000-0 -30905-4 0  9990,2 53857  53.2168 106.0593 0001287 104.7851 255.3284 15.08852345 78222,6917.843,95.437,540.598,538.817,0.0
53857.0,STARLINK-4809,PAYLOAD,2024-02-09 13:15:22,15.08852919,0.0001328,53.217,101.5978,89.1485,270.9659,8.2537e-05,1.026e-05,0.0,0 STARLINK-4809,1 53857U 22114AR  24040.55234591  .00001026  00000-0  82537-4 0  9990,2 53857  53.2170 101.5978 0001328  89.1485 270.9659 15.08852919 78379,6917.841,95.437,540.625,538.787,0.0
53857.0,STARLINK-4809,PAYLOAD,2024-02-10 03:33:52,15.08832915,0.0001389,53.2175,98.9228,94.0419,266.0732,5.3378e-05,5.62e-06,0.0,0 STARLINK-4809,1 53857U 22114AR  24041.14852141  .00000562  00000-0  53378-4 0  9998,2 53857  53.2175  98.9228 0001389  94.0419 266.0732 15.08832915 77922,6917.902,95.438,540.728,538.806,0.0
53857.0,STARLINK-4809,PAYLOAD,2024-02-10 09:55:24,15.08844041,0.00017,53.2177,97.7343,101.4668,258.6515,4.0416e-05,3.55e-06,0.0,0 STARLINK-4809,1 53857U 22114AR  24041.41347461  .00000355  00000-0  40416-4 0  9991,2 53857  53.2177  97.7343 0001700 101.4668 258.6515 15.08844041 77968,6917.868,95.437,540.909,538.557,0.0
53857.0,STARLINK-4809,PAYLOAD,2024-02-11 12:56:57,15.08849175,0.0002075,53.2189,92.6717,64.6756,295.4451,7.1736e-06,-1.74e-06,0.0,0 STARLINK-4809,1 53857U 22114AR  24042.53955339 -.00000174  00000-0  71736-5 0  9994,2 53857  53.2189  92.6717 0002075  64.6756 295.4451 15.08849175 78674,6917.852,95.437,541.153,538.282,0.0
53857.0,STARLINK-4809,PAYLOAD,2024-02-12 09:36:57,15.08848262,0.0002028,53.2186,88.8167,76.631,283.4908,0.00012822,1.753e-05,0.0,0 STARLINK-4809,1 53857U 22114AR  24043.40066862  .00001753  00000-0  12822-3 0  9997,2 53857  53.2186  88.8167 0002028  76.6310 283.4908 15.08848262 78809,6917.855,95.437,541.123,538.317,0.0
53857.0,STARLINK-4809,PAYLOAD,2024-02-13 07:52:22,15.08835378,0.0001555,53.2171,84.6461,98.1426,261.9742,-3.2636e-05,-8.07e-06,0.0,0 STARLINK-4809,1 53857U 22114AR  24044.32804130 -.00000807  00000-0 -32636-4 0  9994,2 53857  53.2171  84.6461 0001555  98.1426 261.9742 15.08835378 78402,6917.895,95.438,540.835,538.684,0.0
53857.0,STARLINK-4809,PAYLOAD,2024-02-13 19:00:04,15.08838875,0.0001516,53.2174,82.5641,90.4913,269.6253,-2.6492e-06,-3.3e-06,0.0,0 STARLINK-4809,1 53857U 22114AR  24044.79171971 -.00000330  00000-0 -26492-5 0  9990,2 53857  53.2174  82.5641 0001516  90.4913 269.6253 15.08838875 79010,6917.884,95.438,540.798,538.7,0.0
53857.0,STARLINK-4809,PAYLOAD,2024-02-14 09:18:31,15.08853226,0.0001533,53.217,79.8914,94.1584,265.9583,9.9849e-05,1.302e-05,0.0,0 STARLINK-4809,1 53857U 22114AR  24045.38786851  .00001302  00000-0  99849-4 0  9998,2 53857  53.2170  79.8914 0001533  94.1584 265.9583 15.08853226 78563,6917.84,95.437,540.765,538.644,0.0
53857.0,STARLINK-4809,PAYLOAD,2024-02-14 18:50:51,15.08844729,0.0001991,53.2187,78.1068,66.4771,293.643,0.00010664,1.41e-05,0.0,0 STARLINK-4809,1 53857U 22114AR  24045.78531467  .00001410  00000-0  10664-3 0  9990,2 53857  53.2187  78.1068 0001991  66.4771 293.6430 15.08844729 78625,6917.866,95.437,541.108,538.354,0.0
53857.0,STARLINK-4809,PAYLOAD,2024-02-15 10:44:43,15.08831165,0.0001468,53.216,75.1338,83.9317,276.1842,2.7087e-05,1.43e-06,0.0,0 STARLINK-4809,1 53857U 22114AR  24046.44772568  .00000143  00000-0  27087-4 0  9993,2 53857  53.2160  75.1338 0001468  83.9317 276.1842 15.08831165 79266,6917.907,95.438,540.788,538.757,0.0
53857.0,STARLINK-4809,PAYLOAD,2024-02-15 18:41:39,15.0883512,0.000149,53.2163,73.647,86.0357,274.0805,8.5897e-05,1.079e-05,0.0,0 STARLINK-4809,1 53857U 22114AR  24046.77892606  .00001079  00000-0  85897-4 0  9997,2 53857  53.2163  73.6470 0001490  86.0357 274.0805 15.08835120 79319,6917.895,95.438,540.791,538.73,0.0
53857.0,STARLINK-4809,PAYLOAD,2024-02-16 09:00:07,15.08848461,0.0001537,53.216,70.97,83.4736,276.6431,0.00074202,0.00011544,0.0,0 STARLINK-4809,1 53857U 22114AR  24047.37508439  .00011544  00000-0  74202-3 0  9997,2 53857  53.2160  70.9700 0001537  83.4736 276.6431 15.08848461 78860,6917.855,95.437,540.783,538.656,0.0
53857.0,STARLINK-4809,PAYLOAD,2024-02-16 10:35:30,15.08854373,0.0001589,53.2162,70.6728,84.8166,275.3007,0.00091054,0.00014239,0.0,0 STARLINK-4809,1 53857U 22114AR  24047.44132329  .00014239  00000-0  91054-3 0  9994,2 53857  53.2162  70.6728 0001589  84.8166 275.3007 15.08854373 79414,6917.836,95.437,540.801,538.602,0.0
53857.0,STARLINK-4809,PAYLOAD,2024-02-17 00:53:58,15.08842445,0.0001786,53.2167,67.9949,128.1578,231.9575,0.00018266,2.62e-05,0.0,0 STARLINK-4809,1 53857U 22114AR  24048.03748301  .00002620  00000-0  18266-3 0  9998,2 53857  53.2167  67.9949 0001786 128.1578 231.9575 15.08842445 78965,6917.873,95.437,540.973,538.502,0.0
53857.0,STARLINK-4809,PAYLOAD,2024-02-17 10:26:17,15.08850987,0.0001545,53.2159,66.212,95.4451,264.6718,0.00064623,0.00010015,0.0,0 STARLINK-4809,1 53857U 22114AR  24048.43492478  .00010015  00000-0  64623-3 0  9998,2 53857  53.2159  66.2120 0001545  95.4451 264.6718 15.08850987 79567,6917.847,95.437,540.781,538.643,0.0
53857.0,STARLINK-4809,PAYLOAD,2024-02-17 18:23:13,15.08838716,0.000171,53.216,64.7255,87.965,272.1538,0.00047376,7.26e-05,0.0,0 STARLINK-4809,1 53857U 22114AR  24048.76612802  .00007260  00000-0  47376-3 0  9993,2 53857  53.2160  64.7255 0001710  87.9650 272.1538 15.08838716 79618,6917.884,95.438,540.932,538.566,0.0
53857.0,STARLINK-4809,PAYLOAD,2024-02-18 00:44:46,15.08842339,0.0001956,53.2174,63.536,87.8483,272.2733,0.00077575,0.0001208,0.0,0 STARLINK-4809,1 53857U 22114AR  24049.03109042  .00012080  00000-0  77575-3 0  9991,2 53857  53.2174  63.5360 0001956  87.8483 272.2733 15.08842339 79111,6917.873,95.437,541.091,538.385,0.0
53857.0,STARLINK-4809,PAYLOAD,2024-02-18 07:06:18,15.08852063,0.0001773,53.2168,62.3458,94.7552,265.3642,0.0011326,0.00017789,0.0,0 STARLINK-4809,1 53857U 22114AR  24049.29604906  .00017789  00000-0  11326-2 0  9990,2 53857  53.2168  62.3458 0001773  94.7552 265.3642 15.08852063 79690,6917.844,95.437,540.935,538.482,0.0
53857.0,STARLINK-4809,PAYLOAD,2024-02-19 03:46:19,15.08849515,0.0001626,53.2152,58.4803,90.8915,269.2263,0.00047693,7.312e-05,0.0,0 STARLINK-4809,1 53857U 22114AR  24050.15716731  .00007312  00000-0  47693-3 0  9995,2 53857  53.2152  58.4803 0001626  90.8915 269.2263 15.08849515 79285,6917.851,95.437,540.841,538.591,0.0
53857.0,STARLINK-4809,PAYLOAD,2024-02-19 06:57:05,15.08852566,0.0001613,53.216,57.8848,95.0911,265.0266,0.00048452,7.434e-05,0.0,0 STARLINK-4809,1 53857U 22114AR  24050.28964564  .00007434  00000-0  48452-3 0  9997,2 53857  53.2160  57.8848 0001613  95.0911 265.0266 15.08852566 79844,6917.842,95.437,540.823,538.591,0.0
53857.0,STARLINK-4809,PAYLOAD,2024-02-20 03:37:06,15.08839458,0.0001553,53.2161,54.0191,94.5561,265.5608,0.00014653,2.045e-05,0.0,0 STARLINK-4809,1 53857U 22114AR  24051.15076988  .00002045  00000-0  14653-3 0  9997,2 53857  53.2161  54.0191 0001553  94.5561 265.5608 15.08839458 79438,6917.882,95.438,540.821,538.673,0.0
53857.0,STARLINK-4809,PAYLOAD,2024-02-20 09:58:39,15.08842238,0.0001463,53.2156,52.8305,85.8169,274.2991,0.00014599,2.036e-05,0.0,0 STARLINK-4809,1 53857U 22114AR  24051.41573030  .00002036  00000-0  14599-3 0  9995,2 53857  53.2156  52.8305 0001463  85.8169 274.2991 15.08842238 80010,6917.874,95.437,540.751,538.726,0.0
53857.0,STARLINK-4809,PAYLOAD,2024-02-21 06:38:39,15.08851579,0.0001542,53.2166,48.9635,86.689,273.4279,0.00031932,4.799e-05,0.0,0 STARLINK-4809,1 53857U 22114AR  24052.27684751  .00004799  00000-0  31932-3 0  9991,2 53857  53.2166  48.9635 0001542  86.6890 273.4279 15.08851579 79602,6917.845,95.437,540.777,538.643,0.0
53857.0,STARLINK-4809,PAYLOAD,2024-02-21 16:10:58,15.08842048,0.0001557,53.2179,47.1807,89.7114,270.4056,0.00016216,2.294e-05,0.0,0 STARLINK-4809,1 53857U 22114AR  24052.67429066  .00002294  00000-0  16216-3 0  9997,2 53857  53.2179  47.1807 0001557  89.7114 270.4056 15.08842048 79664,6917.874,95.437,540.816,538.662,0.0
53857.0,STARLINK-4809,PAYLOAD,2024-02-22 06:29:27,15.08839164,0.0001422,53.2175,44.5047,91.2872,268.8283,6.3837e-05,7.28e-06,0.0,0 STARLINK-4809,1 53857U 22114AR  24053.27045181  .00000728  00000-0  63837-4 0  9998,2 53857  53.2175  44.5047 0001422  91.2872 268.8283 15.08839164 80296,6917.883,95.438,540.732,538.764,0.0
53857.0,STARLINK-4809,PAYLOAD,2024-02-23 06:20:14,15.08841651,0.0001591,53.2179,40.0467,105.4251,254.6916,1.8938e-05,1.3e-07,0.0,0 STARLINK-4809,1 53857U 22114AR  24054.26405163  .00000013  00000-0  18938-4 0  9997,2 53857  53.2179  40.0467 0001591 105.4251 254.6916 15.08841651 80440,6917.875,95.437,540.841,538.64,0.0
53857.0,STARLINK-4809,PAYLOAD,2024-02-23 15:52:32,15.0884577,0.0001304,53.2169,38.2596,85.5631,274.551,8.762e-05,1.107e-05,0.0,0 STARLINK-4809,1 53857U 22114AR  24054.66148996  .00001107  00000-0  87620-4 0  9998,2 53857  53.2169  38.2596 0001304  85.5631 274.5510 15.08845770 79965,6917.863,95.437,540.63,538.826,0.0
53857.0,STARLINK-4809,PAYLOAD,2024-02-24 04:35:38,15.08838054,0.000156,53.2181,35.8833,96.4929,263.6241,1.7484e-05,-1e-07,0.0,0 STARLINK-4809,1 53857U 22114AR  24055.19141608 -.00000010  00000-0  17484-4 0  9994,2 53857  53.2181  35.8833 0001560  96.4929 263.6241 15.08838054 80049,6917.886,95.438,540.831,538.672,0.0
53857.0,STARLINK-4809,PAYLOAD,2024-02-24 07:46:24,15.08842412,0.0001583,53.2181,35.2885,90.7177,269.3997,0.00013188,1.812e-05,0.0,0 STARLINK-4809,1 53857U 22114AR  24055.32389435  .00001812  00000-0  13188-3 0  9997,2 53857  53.2181  35.2885 0001583  90.7177 269.3997 15.08842412 80603,6917.873,95.437,540.833,538.643,0.0
